COSMOS 2425 (716)       
1 29670U 06062A   19028.51856545 -.00000026  00000-0  10000-3 0  9990
2 29670  65.1711 284.9166 0023036 346.3983 154.0378  2.13104618 94112
COSMOS 2426 (717)       
1 29671U 06062B   19027.68382603 -.00000027  00000-0  10000-3 0  9998
2 29671  65.1882 285.0480 0016349 165.0036 269.2443  2.13103150 94108
COSMOS 2433 (720)       
1 32275U 07052A   19028.31839476 -.00000032  00000-0  10000-3 0  9994
2 32275  65.7921  45.8158 0005374 262.8047 274.5391  2.13104527 87629
COSMOS 2432 (719)       
1 32276U 07052B   19027.68247602 -.00000034  00000-0  10000-3 0  9990
2 32276  65.8039  45.9191 0012129 321.2240  39.6561  2.13103810 87612
COSMOS 2434 (721)       
1 32393U 07065A   19028.36590935 -.00000024  00000-0  00000+0 0  9994
2 32393  64.7867 283.7901 0003404  86.7838  14.5777  2.13103003 86335
COSMOS 2436 (723)       
1 32395U 07065C   19028.44805553 -.00000024  00000-0  10000-3 0  9995
2 32395  64.7950 283.8395 0016919 359.1191 216.8603  2.13104319 86260
COSMOS 2456 (730)       
1 36111U 09070A   19028.38845933  .00000034  00000-0  00000+0 0  9997
2 36111  64.1942 163.4044 0003072 343.9357 307.5552  2.13102897 70993
COSMOS 2457 (733)       
1 36112U 09070B   19027.50161250  .00000044  00000-0  00000-0 0  9996
2 36112  64.1768 163.3404 0006517 151.4732 305.4037  2.13101542 70985
COSMOS 2458 (734)       
1 36113U 09070C   19028.35266248  .00000034  00000-0  10000-3 0  9997
2 36113  64.1826 163.3250 0003059  45.6000  24.8638  2.13092188 71008
COSMOS 2459 (731)       
1 36400U 10007A   19027.60232189 -.00000035  00000-0  10000-3 0  9994
2 36400  65.6991  44.8758 0026774 345.5753 219.4877  2.13102199 69332
COSMOS 2461 (735)       
1 36401U 10007B   19027.67847209 -.00000035  00000-0  10000-3 0  9997
2 36401  65.6907  44.8452 0004452  51.3384 122.6852  2.13102078 69336
COSMOS 2460 (732)       
1 36402U 10007C   19027.66606334 -.00000035  00000-0  10000-3 0  9999
2 36402  65.6823  44.8116 0002490 272.7114 292.0026  2.13101587 69330
COSMOS 2464 (736)       
1 37139U 10041C   19027.85989444 -.00000025  00000-0  00000+0 0  9996
2 37139  64.3885 283.5015 0025854  11.4617 288.9909  2.13097134 65407
COSMOS 2471 (701K)      
1 37372U 11009A   19027.67242012 -.00000035  00000-0  00000-0 0  9995
2 37372  65.6783  44.7556 0010176 238.3930 120.0331  2.13107668 61600
COSMOS 2474 (742)       
1 37829U 11055A   19028.19828494  .00000038  00000-0  00000+0 0  9996
2 37829  64.5172 164.2227 0006909 237.4501 125.2144  2.13101872 56999
COSMOS 2476 (744)       
1 37867U 11064A   19027.61587753  .00000045  00000-0  00000-0 0  9993
2 37867  64.4973 164.2985 0016874 236.1983  85.7577  2.13101948 56323
COSMOS 2477 (745)       
1 37868U 11064B   19027.67122257  .00000044  00000-0  00000-0 0  9993
2 37868  64.5059 164.3480 0014646 237.1092 306.0925  2.13101754 56284
COSMOS 2475 (743)       
1 37869U 11064C   19027.57237803  .00000045  00000-0  00000-0 0  9998
2 37869  64.5134 164.3486 0018433 264.8439 159.4964  2.13101989 56299
COSMOS 2485 (747)       
1 39155U 13019A   19027.54365531  .00000046  00000-0  00000-0 0  9998
2 39155  64.6664 164.4596 0017525 231.0305  80.3278  2.13101913 44799
COSMOS 2492 (754)       
1 39620U 14012A   19027.50867123 -.00000036  00000-0  10000-3 0  9993
2 39620  65.5722  44.6697 0015578 319.8250 359.6813  2.13103439 37741
COSMOS 2500 (755)       
1 40001U 14032A   19027.94770405 -.00000034  00000-0  00000-0 0  9998
2 40001  65.5134  44.6080 0007634 224.8542 293.1880  2.13102696 35975
COSMOS 2501 (702K)      
1 40315U 14075A   19027.85893505 -.00000027  00000-0  00000-0 0  9992
2 40315  64.1100 284.6322 0015139 209.6654  39.5835  2.13098513 32375
COSMOS 2514 (751)       
1 41330U 16008A   19028.38769263 -.00000033  00000-0  00000+0 0  9996
2 41330  65.3151  44.5912 0011316 226.2233  90.7596  2.13103185 23141
COSMOS 2516 (753)       
1 41554U 16032A   19027.94283542 -.00000027  00000-0  00000-0 0  9997
2 41554  64.3327 284.5571 0011337 223.7498   2.6673  2.13101741 20745
COSMOS 2522 (752)       
1 42939U 17055A   19027.73158720 -.00000027  00000-0  00000-0 0  9997
2 42939  64.5640 284.5959 0007124 257.6256  33.2020  2.13102077 10490
